IRIDIUM 119             
1 42959U 17061E   25014.11868827  .00000092  00000+0  25693-4 0  9996
2 42959  86.3949 242.1155 0001737  89.2616 270.8778 14.34216816380411
IRIDIUM 107             
1 42960U 17061F   25014.13771705  .00000355  00000+0  11978-3 0  9990
2 42960  86.3953 242.1260 0001788 101.7738 258.3659 14.34220659380437
IRIDIUM 132             
1 42961U 17061G   25013.72544589  .00000111  00000+0  32704-4 0  9994
2 42961  86.3953 242.2814 0002012  91.8330 268.3096 14.34219552380360
IRIDIUM 136             
1 42962U 17061H   25014.17577155  .00000274  00000+0  90697-4 0  9995
2 42962  86.3953 242.0972 0001623  92.8939 267.2442 14.34217329380449
IRIDIUM 139             
1 42963U 17061J   25013.90303953  .00000385  00000+0  13048-3 0  9996
2 42963  86.3955 242.2650 0001852  96.3484 263.7923 14.34218736380410
IRIDIUM 125             
1 42964U 17061K   25013.68106338  .00000402  00000+0  13650-3 0  9999
2 42964  86.3957 242.4093 0001392  90.9579 269.1776 14.34218274380390
IRIDIUM 135             
1 43070U 17083A   25013.93424543  .00000344  00000+0  11580-3 0  9996
2 43070  86.4001 179.0328 0002210  88.8905 271.2544 14.34221084369729
IRIDIUM 138             
1 43071U 17083B   25013.95961725 -.00000131  00000+0 -53870-4 0  9992
2 43071  86.3994 178.7135 0001336  79.3025 280.8321 14.34216757369717
